KUIPER-00035            
1 63748U 25088AA  25249.62104400  .00003052  00000+0  42914-3 0  9992
2 63748  51.9018 208.0492 0005197 182.6863 177.4073 14.79949120 20259
KUIPER-00037            
1 63749U 25088AB  25249.62263502 -.00003243  00000+0 -39614-3 0  9999
2 63749  51.8995 207.0058 0006913 123.5743 236.5881 14.79934517 21055
KUIPER-00038            
1 63750U 25088AC  25249.91668981 -.00010032  00000+0 -94510-3 0  9993
2 63750  51.8939 190.8871 0005926 181.5381 139.3529 14.92466371  5708
KUIPER-00039            
1 64500U 25134A   25249.91668981 -.00006279  00000+0 -31468-3 0  9990
2 64500  51.8851 328.7677 0011923  36.5579  34.0870 15.15063417  5444
KUIPER-00040            
1 64501U 25134B   25249.91668981 -.00041243  00000+0 -52637-2 0  9991
2 64501  51.8991 336.9048 0017724  26.2382 223.1087 14.80987054  5518
KUIPER-00041            
1 64502U 25134C   25249.91668981 -.00030259  00000+0 -39544-2 0  9999
2 64502  51.9002 338.2452 0014394  22.6792 239.3267 14.79888891  5574
KUIPER-00042            
1 64503U 25134D   25249.91668981 -.01020443  00000+0 -11606+0 0  9991
2 64503  51.8990 334.4573 0014343  30.6799  97.5571 14.88832696  3822
KUIPER-00043            
1 64504U 25134E   25249.91668981 -.00005154  00000+0 -27046-3 0  9992
2 64504  51.8835 329.6395 0006808  24.9030  23.8100 15.13119792  5602
